{
 "generated_at": "2026-07-09T08:28:01Z",
 "sources": [
  {
   "name": "CelesTrak",
   "url": "https://celestrak.org/NORAD/elements/",
   "license": "frei verfügbar; Attribution. Ursprünglich USSPACECOM/Space-Track."
  },
  {
   "name": "GCAT (J. McDowell, planet4589.org)",
   "url": "https://planet4589.org/space/gcat/",
   "license": "CC-BY 4.0"
  }
 ],
 "satellites": [
  {
   "norad": 46497,
   "name": "ICEYE-X6",
   "intl": "2020-068M",
   "group": "sar",
   "gcat": {
    "class": "B",
    "category": "IMG-R",
    "owner": "ICEYE",
    "state": "FI"
   },
   "omm": {
    "OBJECT_NAME": "ICEYE-X6",
    "OBJECT_ID": "2020-068M",
    "EPOCH": "2026-07-08T22:31:20.523072",
    "MEAN_MOTION": 15.04640193,
    "ECCENTRICITY": 0.00077492,
    "INCLINATION": 98.0976,
    "RA_OF_ASC_NODE": 184.6513,
    "ARG_OF_PERICENTER": 27.9689,
    "MEAN_ANOMALY": 332.1951,
    "EPHEMERIS_TYPE": 0,
    "CLASSIFICATION_TYPE": "U",
    "NORAD_CAT_ID": 46497,
    "ELEMENT_SET_NO": 999,
    "REV_AT_EPOCH": 31650,
    "BSTAR": 0.00018838662,
    "MEAN_MOTION_DOT": 0.00002581,
    "MEAN_MOTION_DDOT": 0
   }
  },
  {
   "norad": 66753,
   "name": "ICEYE-X60",
   "intl": "2025-276CR",
   "group": "sar",
   "gcat": {
    "class": "B",
    "category": "IMG-R",
    "owner": "ELKED",
    "state": "GR"
   },
   "omm": {
    "OBJECT_NAME": "ICEYE-X60",
    "OBJECT_ID": "2025-276CR",
    "EPOCH": "2026-07-08T18:38:26.169792",
    "MEAN_MOTION": 15.11110867,
    "ECCENTRICITY": 0.00007068,
    "INCLINATION": 97.4297,
    "RA_OF_ASC_NODE": 261.7945,
    "ARG_OF_PERICENTER": 344.3487,
    "MEAN_ANOMALY": 15.7721,
    "EPHEMERIS_TYPE": 0,
    "CLASSIFICATION_TYPE": "U",
    "NORAD_CAT_ID": 66753,
    "ELEMENT_SET_NO": 999,
    "REV_AT_EPOCH": 3362,
    "BSTAR": 0.00015423119,
    "MEAN_MOTION_DOT": 0.00002521,
    "MEAN_MOTION_DDOT": 0
   }
  },
  {
   "norad": 66754,
   "name": "ICEYE-X61",
   "intl": "2025-276CS",
   "group": "sar",
   "gcat": {
    "class": "B",
    "category": "IMG-R",
    "owner": "ARGUS/MON",
    "state": "PL"
   },
   "omm": {
    "OBJECT_NAME": "ICEYE-X61",
    "OBJECT_ID": "2025-276CS",
    "EPOCH": "2026-07-08T18:34:59.315232",
    "MEAN_MOTION": 15.18585322,
    "ECCENTRICITY": 0.00016251,
    "INCLINATION": 97.4192,
    "RA_OF_ASC_NODE": 262.8622,
    "ARG_OF_PERICENTER": 249.6726,
    "MEAN_ANOMALY": 110.4334,
    "EPHEMERIS_TYPE": 0,
    "CLASSIFICATION_TYPE": "U",
    "NORAD_CAT_ID": 66754,
    "ELEMENT_SET_NO": 999,
    "REV_AT_EPOCH": 3369,
    "BSTAR": 0.00010344088,
    "MEAN_MOTION_DOT": 0.00002071,
    "MEAN_MOTION_DDOT": 0
   }
  },
  {
   "norad": 66755,
   "name": "ICEYE-X62",
   "intl": "2025-276CT",
   "group": "sar",
   "gcat": {
    "class": "B",
    "category": "IMG-R",
    "owner": "ICEYE",
    "state": "FI"
   },
   "omm": {
    "OBJECT_NAME": "ICEYE-X62",
    "OBJECT_ID": "2025-276CT",
    "EPOCH": "2026-07-08T17:33:38.443680",
    "MEAN_MOTION": 15.10117598,
    "ECCENTRICITY": 0.00007834,
    "INCLINATION": 97.4194,
    "RA_OF_ASC_NODE": 261.2654,
    "ARG_OF_PERICENTER": 320.3388,
    "MEAN_ANOMALY": 39.7785,
    "EPHEMERIS_TYPE": 0,
    "CLASSIFICATION_TYPE": "U",
    "NORAD_CAT_ID": 66755,
    "ELEMENT_SET_NO": 999,
    "REV_AT_EPOCH": 3358,
    "BSTAR": 0.000094518905,
    "MEAN_MOTION_DOT": 0.00001479,
    "MEAN_MOTION_DDOT": 0
   }
  },
  {
   "norad": 67372,
   "name": "ICEYE-X63",
   "intl": "2026-004K",
   "group": "sar",
   "gcat": {
    "class": "B",
    "category": "IMG-R",
    "owner": "ICEYE",
    "state": "FI"
   },
   "omm": {
    "OBJECT_NAME": "ICEYE-X63",
    "OBJECT_ID": "2026-004K",
    "EPOCH": "2026-07-08T22:21:57.651264",
    "MEAN_MOTION": 14.88341294,
    "ECCENTRICITY": 0.00057119,
    "INCLINATION": 97.8009,
    "RA_OF_ASC_NODE": 188.2319,
    "ARG_OF_PERICENTER": 67.0565,
    "MEAN_ANOMALY": 293.1254,
    "EPHEMERIS_TYPE": 0,
    "CLASSIFICATION_TYPE": "U",
    "NORAD_CAT_ID": 67372,
    "ELEMENT_SET_NO": 999,
    "REV_AT_EPOCH": 2653,
    "BSTAR": 0.000078158878,
    "MEAN_MOTION_DOT": 0.00000669,
    "MEAN_MOTION_DDOT": 0
   }
  },
  {
   "norad": 67373,
   "name": "ICEYE-X64",
   "intl": "2026-004L",
   "group": "sar",
   "gcat": {
    "class": "D",
    "category": "IMG-R",
    "owner": "PUOL",
    "state": "FI"
   },
   "omm": {
    "OBJECT_NAME": "ICEYE-X64",
    "OBJECT_ID": "2026-004L",
    "EPOCH": "2026-07-08T21:53:04.338528",
    "MEAN_MOTION": 14.87977073,
    "ECCENTRICITY": 0.00075254,
    "INCLINATION": 97.8022,
    "RA_OF_ASC_NODE": 188.1338,
    "ARG_OF_PERICENTER": 70.7889,
    "MEAN_ANOMALY": 289.4141,
    "EPHEMERIS_TYPE": 0,
    "CLASSIFICATION_TYPE": "U",
    "NORAD_CAT_ID": 67373,
    "ELEMENT_SET_NO": 999,
    "REV_AT_EPOCH": 2652,
    "BSTAR": 0.0001076961,
    "MEAN_MOTION_DOT": 0.00000934,
    "MEAN_MOTION_DDOT": 0
   }
  },
  {
   "norad": 66300,
   "name": "ICEYE-X65",
   "intl": "2025-248H",
   "group": "sar",
   "gcat": {
    "class": "B",
    "category": "IMG-R",
    "owner": "SP42",
    "state": "UAE"
   },
   "omm": {
    "OBJECT_NAME": "ICEYE-X65",
    "OBJECT_ID": "2025-248H",
    "EPOCH": "2026-07-08T22:41:54.554784",
    "MEAN_MOTION": 15.07903294,
    "ECCENTRICITY": 0.00048434,
    "INCLINATION": 45.4054,
    "RA_OF_ASC_NODE": 19.7638,
    "ARG_OF_PERICENTER": 164.1787,
    "MEAN_ANOMALY": 195.9246,
    "EPHEMERIS_TYPE": 0,
    "CLASSIFICATION_TYPE": "U",
    "NORAD_CAT_ID": 66300,
    "ELEMENT_SET_NO": 999,
    "REV_AT_EPOCH": 3880,
    "BSTAR": 0.0001423371,
    "MEAN_MOTION_DOT": 0.0000197,
    "MEAN_MOTION_DDOT": 0
   }
  },
  {
   "norad": 66301,
   "name": "ICEYE-X66",
   "intl": "2025-248J",
   "group": "sar",
   "gcat": {
    "class": "B",
    "category": "IMG-R",
    "owner": "SP42",
    "state": "UAE"
   },
   "omm": {
    "OBJECT_NAME": "ICEYE-X66",
    "OBJECT_ID": "2025-248J",
    "EPOCH": "2026-07-08T13:14:06.834336",
    "MEAN_MOTION": 15.09149054,
    "ECCENTRICITY": 0.0004446,
    "INCLINATION": 45.4021,
    "RA_OF_ASC_NODE": 20.9877,
    "ARG_OF_PERICENTER": 157.5963,
    "MEAN_ANOMALY": 202.5114,
    "EPHEMERIS_TYPE": 0,
    "CLASSIFICATION_TYPE": "U",
    "NORAD_CAT_ID": 66301,
    "ELEMENT_SET_NO": 999,
    "REV_AT_EPOCH": 3873,
    "BSTAR": 0.0001546885,
    "MEAN_MOTION_DOT": 0.00002243,
    "MEAN_MOTION_DDOT": 0
   }
  },
  {
   "norad": 66302,
   "name": "ICEYE-X67",
   "intl": "2025-248K",
   "group": "sar",
   "gcat": {
    "class": "B",
    "category": "IMG-R",
    "owner": "SP42",
    "state": "UAE"
   },
   "omm": {
    "OBJECT_NAME": "ICEYE-X67",
    "OBJECT_ID": "2025-248K",
    "EPOCH": "2026-07-08T05:52:56.060256",
    "MEAN_MOTION": 15.09128573,
    "ECCENTRICITY": 0.00059712,
    "INCLINATION": 45.4058,
    "RA_OF_ASC_NODE": 22.1771,
    "ARG_OF_PERICENTER": 156.3678,
    "MEAN_ANOMALY": 203.748,
    "EPHEMERIS_TYPE": 0,
    "CLASSIFICATION_TYPE": "U",
    "NORAD_CAT_ID": 66302,
    "ELEMENT_SET_NO": 999,
    "REV_AT_EPOCH": 3870,
    "BSTAR": 0.00012721252,
    "MEAN_MOTION_DOT": 0.00001799,
    "MEAN_MOTION_DDOT": 0
   }
  },
  {
   "norad": 46496,
   "name": "ICEYE-X7",
   "intl": "2020-068L",
   "group": "sar",
   "gcat": {
    "class": "B",
    "category": "IMG-R",
    "owner": "ICEYE",
    "state": "FI"
   },
   "omm": {
    "OBJECT_NAME": "ICEYE-X7",
    "OBJECT_ID": "2020-068L",
    "EPOCH": "2026-07-08T23:03:19.384128",
    "MEAN_MOTION": 15.3200663,
    "ECCENTRICITY": 0.00054714,
    "INCLINATION": 97.7501,
    "RA_OF_ASC_NODE": 157.4843,
    "ARG_OF_PERICENTER": 240.8728,
    "MEAN_ANOMALY": 119.1965,
    "EPHEMERIS_TYPE": 0,
    "CLASSIFICATION_TYPE": "U",
    "NORAD_CAT_ID": 46496,
    "ELEMENT_SET_NO": 999,
    "REV_AT_EPOCH": 31812,
    "BSTAR": 0.00024436913,
    "MEAN_MOTION_DOT": 0.00007471,
    "MEAN_MOTION_DDOT": 0
   }
  }
 ]
}
