ICEYE-X7                
1 46496U 20068L   26189.96064102  .00007471  00000+0  24437-3 0  9990
2 46496  97.7501 157.4843 0005471 240.8728 119.1965 15.32006630318123
ICEYE-X6                
1 46497U 20068M   26189.93843198  .00002581  00000+0  18839-3 0  9994
2 46497  98.0976 184.6513 0007749  27.9689 332.1951 15.04640193316509
ICEYE-X65               
1 66300U 25248H   26189.94577031  .00001970  00000+0  14234-3 0  9991
2 66300  45.4054  19.7638 0004843 164.1787 195.9246 15.07903294 38801
ICEYE-X66               
1 66301U 25248J   26189.55146799  .00002243  00000+0  15469-3 0  9997
2 66301  45.4021  20.9877 0004446 157.5963 202.5114 15.09149054 38735
ICEYE-X67               
1 66302U 25248K   26189.24509329  .00001799  00000+0  12721-3 0  9999
2 66302  45.4058  22.1771 0005971 156.3678 203.7480 15.09128573 38706
ICEYE-X60               
1 66753U 25276CR  26189.77669178  .00002521  00000+0  15423-3 0  9993
2 66753  97.4297 261.7945 0000706 344.3487  15.7721 15.11110867 33625
ICEYE-X61               
1 66754U 25276CS  26189.77429763  .00002071  00000+0  10344-3 0  9995
2 66754  97.4192 262.8622 0001625 249.6726 110.4334 15.18585322 33697
ICEYE-X62               
1 66755U 25276CT  26189.73169495  .00001479  00000+0  94519-4 0  9993
2 66755  97.4194 261.2654 0000783 320.3388  39.7785 15.10117598 33582
ICEYE-X63               
1 67372U 26004K   26189.93191726  .00000669  00000+0  78159-4 0  9995
2 67372  97.8009 188.2319 0005711  67.0565 293.1254 14.88341294 26531
ICEYE-X64               
1 67373U 26004L   26189.91185577  .00000934  00000+0  10770-3 0  9990
2 67373  97.8022 188.1338 0007525  70.7889 289.4141 14.87977073 26523
